NORAD_CAT_ID,OBJECT_NAME,OBJECT_TYPE,EPOCH,MEAN_MOTION,ECCENTRICITY,INCLINATION,RA_OF_ASC_NODE,ARG_OF_PERICENTER,MEAN_ANOMALY,BSTAR,MEAN_MOTION_DOT,MEAN_MOTION_DDOT,TLE_LINE0,TLE_LINE1,TLE_LINE2,SEMIMAJOR_AXIS,PERIOD,APOGEE,PERIGEE,DECAYED
53724.0,STARLINK-4663,PAYLOAD,2023-11-24 15:43:13,15.08835489,0.0001651,53.2196,47.0183,107.0586,253.0587,-0.00010324,-1.931e-05,0.0,0 STARLINK-4663,1 53724U 22107AA  23328.65501933 -.00001931  00000-0 -10324-3 0  9992,2 53724  53.2196  47.0183 0001651 107.0586 253.0587 15.08835489 68209,6917.894,95.438,540.901,538.617,0.0
53724.0,STARLINK-4663,PAYLOAD,2023-11-25 10:47:50,15.08849646,0.0002096,53.2193,43.451,123.3205,236.7988,0.00036659,5.553e-05,0.0,0 STARLINK-4663,1 53724U 22107AA  23329.44989191  .00005553  00000-0  36659-3 0  9997,2 53724  53.2193  43.4510 0002096 123.3205 236.7988 15.08849646 68329,6917.851,95.437,541.166,538.266,0.0
53724.0,STARLINK-4663,PAYLOAD,2023-11-25 15:33:59,15.08852362,0.000173,53.2191,42.5587,110.5305,249.5873,0.00038746,5.886e-05,0.0,0 STARLINK-4663,1 53724U 22107AA  23329.64861089  .00005886  00000-0  38746-3 0  9992,2 53724  53.2191  42.5587 0001730 110.5305 249.5873 15.08852362 68351,6917.843,95.437,540.904,538.511,0.0
53724.0,STARLINK-4663,PAYLOAD,2023-11-25 23:30:55,15.08844045,0.0002036,53.2192,41.0706,135.2765,224.8391,0.00024348,3.589e-05,0.0,0 STARLINK-4663,1 53724U 22107AA  23329.97980972  .00003589  00000-0  24348-3 0  9992,2 53724  53.2192  41.0706 0002036 135.2765 224.8391 15.08844045 67947,6917.868,95.437,541.142,538.325,0.0
53724.0,STARLINK-4663,PAYLOAD,2023-11-26 12:14:00,15.08856477,0.000158,53.2181,38.7009,82.3627,277.7545,0.00026909,3.999e-05,0.0,0 STARLINK-4663,1 53724U 22107AA  23330.50972702  .00003999  00000-0  26909-3 0  9995,2 53724  53.2181  38.7009 0001580  82.3627 277.7545 15.08856477 68486,6917.83,95.437,540.788,538.602,0.0
53724.0,STARLINK-4663,PAYLOAD,2023-11-26 23:21:42,15.08841191,0.000156,53.2189,36.6139,124.8582,235.2557,4.3751e-06,-2.18e-06,0.0,0 STARLINK-4663,1 53724U 22107AA  23330.97340956 -.00000218  00000-0  43751-5 0  9994,2 53724  53.2189  36.6139 0001560 124.8582 235.2557 15.08841191 68091,6917.877,95.437,540.821,538.663,0.0
53724.0,STARLINK-4663,PAYLOAD,2023-11-27 12:04:49,15.088203,0.0001746,53.2181,34.2396,83.2352,276.8839,-0.00075873,-0.00012337,0.0,0 STARLINK-4663,1 53724U 22107AA  23331.50334853 -.00012337  00000-0 -75873-3 0  9997,2 53724  53.2181  34.2396 0001746  83.2352 276.8839 15.08820300 68173,6917.941,95.439,541.013,538.598,0.0
53724.0,STARLINK-4663,PAYLOAD,2023-11-27 13:40:12,15.08817716,0.0001549,53.219,33.9365,89.5922,270.5247,-0.00039865,-6.623e-05,0.0,0 STARLINK-4663,1 53724U 22107AA  23331.56959183 -.00006623  00000-0 -39865-3 0  9994,2 53724  53.2190  33.9365 0001549  89.5922 270.5247 15.08817716 68641,6917.949,95.439,540.885,538.742,0.0
53724.0,STARLINK-4663,PAYLOAD,2023-11-28 10:20:13,15.08840125,0.000256,53.2183,30.0817,45.3679,314.7522,0.00011314,1.513e-05,0.0,0 STARLINK-4663,1 53724U 22107AA  23332.43071064  .00001513  00000-0  11314-3 0  9994,2 53724  53.2183  30.0817 0002560  45.3679 314.7522 15.08840125 68317,6917.88,95.438,541.516,537.974,0.0
53724.0,STARLINK-4663,PAYLOAD,2023-11-28 13:30:58,15.08853246,0.0001727,53.2188,29.4794,82.8753,277.2435,0.00025317,3.745e-05,0.0,0 STARLINK-4663,1 53724U 22107AA  23332.56318169  .00003745  00000-0  25317-3 0  9995,2 53724  53.2188  29.4794 0001727  82.8753 277.2435 15.08853246 68797,6917.84,95.437,540.9,538.51,0.0
53724.0,STARLINK-4663,PAYLOAD,2023-11-29 03:49:28,15.08829498,0.0002327,53.2198,26.7969,137.7747,222.3425,0.00051069,7.847e-05,0.0,0 STARLINK-4663,1 53724U 22107AA  23333.15935423  .00007847  00000-0  51069-3 0  9999,2 53724  53.2198  26.7969 0002327 137.7747 222.3425 15.08829498 68424,6917.912,95.438,541.387,538.168,0.0
53724.0,STARLINK-4663,PAYLOAD,2023-11-29 10:10:59,15.08866625,0.0001568,53.2187,25.612,108.0993,252.017,0.00096566,0.00015125,0.0,0 STARLINK-4663,1 53724U 22107AA  23333.42429977  .00015125  00000-0  96566-3 0  9990,2 53724  53.2187  25.6120 0001568 108.0993 252.0170 15.08866625 68463,6917.799,95.436,540.749,538.579,0.0
53724.0,STARLINK-4663,PAYLOAD,2023-11-30 03:40:13,15.08855729,0.0001596,53.2186,22.3427,95.0814,265.0361,4.7797e-05,4.73e-06,0.0,0 STARLINK-4663,1 53724U 22107AA  23334.15293804  .00000473  00000-0  47797-4 0  9992,2 53724  53.2186  22.3427 0001596  95.0814 265.0361 15.08855729 68575,6917.832,95.437,540.801,538.593,0.0
53724.0,STARLINK-4663,PAYLOAD,2023-11-30 10:01:46,15.08849042,0.0001399,53.2178,21.153,96.3345,263.7807,-3.4494e-05,-8.37e-06,0.0,0 STARLINK-4663,1 53724U 22107AA  23334.41790029 -.00000837  00000-0 -34494-4 0  9998,2 53724  53.2178  21.1530 0001399  96.3345 263.7807 15.08849042 68618,6917.853,95.437,540.686,538.75,0.0
53724.0,STARLINK-4663,PAYLOAD,2023-12-01 03:31:01,15.08839229,0.0001621,53.2177,17.8765,115.4015,244.7145,-0.00019154,-3.335e-05,0.0,0 STARLINK-4663,1 53724U 22107AA  23335.14654386 -.00003335  00000-0 -19154-3 0  9995,2 53724  53.2177  17.8765 0001621 115.4015 244.7145 15.08839229 68726,6917.883,95.438,540.869,538.626,0.0
53724.0,STARLINK-4663,PAYLOAD,2023-12-01 09:52:33,15.08852282,0.0001538,53.2197,16.6902,102.8315,257.2849,-3.1037e-05,-7.82e-06,0.0,0 STARLINK-4663,1 53724U 22107AA  23335.41149999 -.00000782  00000-0 -31037-4 0  9992,2 53724  53.2197  16.6902 0001538 102.8315 257.2849 15.08852282 68766,6917.843,95.437,540.772,538.644,0.0
53724.0,STARLINK-4663,PAYLOAD,2023-12-02 09:43:19,15.08870729,0.0001637,53.2189,12.2336,105.5491,254.5682,0.00058409,9.028e-05,0.0,0 STARLINK-4663,1 53724U 22107AA  23336.40508459  .00009028  00000-0  58409-3 0  9993,2 53724  53.2189  12.2336 0001637 105.5491 254.5682 15.08870729 68913,6917.786,95.436,540.784,538.519,0.0
53724.0,STARLINK-4663,PAYLOAD,2023-12-03 11:09:32,15.08805732,0.0001509,53.2188,7.4761,89.1443,270.9722,-0.00055482,-9.099e-05,0.0,0 STARLINK-4663,1 53724U 22107AA  23337.46495908 -.00009099  00000-0 -55482-3 0  9992,2 53724  53.2188   7.4761 0001509  89.1443 270.9722 15.08805732 69079,6917.985,95.44,540.894,538.806,0.0
53724.0,STARLINK-4663,PAYLOAD,2023-12-04 01:28:01,15.08816409,0.0001486,53.2185,4.7913,74.4415,285.6741,-0.00023509,-4.025e-05,0.0,0 STARLINK-4663,1 53724U 22107AA  23338.06112896 -.00004025  00000-0 -23509-3 0  9990,2 53724  53.2185   4.7913 0001486  74.4415 285.6741 15.08816409 69162,6917.952,95.439,540.846,538.789,0.0
53724.0,STARLINK-4663,PAYLOAD,2023-12-04 09:24:57,15.08814443,0.000186,53.2181,3.3144,66.3769,293.7418,0.0009083,0.00014187,0.0,0 STARLINK-4663,1 53724U 22107AA  23338.39233242  .00014187  00000-0  90830-3 0  9994,2 53724  53.2181   3.3144 0001860  66.3769 293.7418 15.08814443 69670,6917.959,95.439,541.11,538.537,0.0
53724.0,STARLINK-4663,PAYLOAD,2023-12-05 01:18:48,15.08850906,0.0001532,53.2177,0.3357,74.9025,285.2137,0.00072259,0.00011234,0.0,0 STARLINK-4663,1 53724U 22107AA  23339.05472574  .00011234  00000-0  72259-3 0  9996,2 53724  53.2177   0.3357 0001532  74.9025 285.2137 15.08850906 69313,6917.847,95.437,540.772,538.652,0.0
53724.0,STARLINK-4663,PAYLOAD,2023-12-05 10:51:06,15.08882014,0.0001887,53.2175,358.5547,64.93,295.1887,0.001182,0.00018595,0.0,0 STARLINK-4663,1 53724U 22107AA  23339.45215465  .00018595  00000-0  11820-2 0  9997,2 53724  53.2175 358.5547 0001887  64.9300 295.1887 15.08882014 69371,6917.752,95.435,540.922,538.312,0.0
53724.0,STARLINK-4663,PAYLOAD,2023-12-06 01:09:34,15.08864038,0.0001857,53.2173,355.8784,68.8185,291.3006,0.00036925,5.597e-05,0.0,0 STARLINK-4663,1 53724U 22107AA  23340.04831163  .00005597  00000-0  36925-3 0  9995,2 53724  53.2173 355.8784 0001857  68.8185 291.3006 15.08864038 69460,6917.807,95.436,540.957,538.387,0.0
53724.0,STARLINK-4663,PAYLOAD,2023-12-06 07:31:06,15.08855858,0.0001827,53.2174,354.6884,63.1051,297.0128,0.0010367,0.00016257,0.0,0 STARLINK-4663,1 53724U 22107AA  23340.31327178  .00016257  00000-0  10367-2 0  9997,2 53724  53.2174 354.6884 0001827  63.1051 297.0128 15.08855858 69969,6917.832,95.437,540.961,538.433,0.0
53724.0,STARLINK-4663,PAYLOAD,2023-12-07 04:11:06,15.08867432,0.0001906,53.2183,350.8212,74.4715,285.6488,0.00067467,0.00010474,0.0,0 STARLINK-4663,1 53724U 22107AA  23341.17438064  .00010474  00000-0  67467-3 0  9998,2 53724  53.2183 350.8212 0001906  74.4715 285.6488 15.08867432 69639,6917.797,95.436,540.98,538.343,0.0
53724.0,STARLINK-4663,PAYLOAD,2023-12-07 10:32:38,15.08876111,0.0001982,53.2179,349.6322,72.0986,288.0222,0.00075395,0.00011743,0.0,0 STARLINK-4663,1 53724U 22107AA  23341.43933432  .00011743  00000-0  75395-3 0  9995,2 53724  53.2179 349.6322 0001982  72.0986 288.0222 15.08876111 70134,6917.77,95.435,541.006,538.264,0.0
53724.0,STARLINK-4663,PAYLOAD,2023-12-08 04:01:54,15.08817519,0.0001821,53.2192,346.3583,88.9216,271.1985,-0.00048073,-7.926e-05,0.0,0 STARLINK-4663,1 53724U 22107AA  23342.16798927 -.00007926  00000-0 -48073-3 0  9997,2 53724  53.2192 346.3583 0001821  88.9216 271.1985 15.08817519 69781,6917.949,95.439,541.074,538.554,0.0
53724.0,STARLINK-4663,PAYLOAD,2023-12-08 07:12:40,15.08816346,0.0001877,53.2186,345.7658,97.4732,262.6474,-0.00052223,-8.585e-05,0.0,0 STARLINK-4663,1 53724U 22107AA  23342.30047250 -.00008585  00000-0 -52223-3 0  9993,2 53724  53.2186 345.7658 0001877  97.4732 262.6474 15.08816346 70269,6917.953,95.439,541.116,538.519,0.0
53724.0,STARLINK-4663,PAYLOAD,2023-12-09 10:14:15,15.0882284,0.0001944,53.2178,340.7104,97.8764,262.2449,0.000367,5.555e-05,0.0,0 STARLINK-4663,1 53724U 22107AA  23343.42657314  .00005555  00000-0  36700-3 0  9999,2 53724  53.2178 340.7104 0001944  97.8764 262.2449 15.08822840 69975,6917.933,95.439,541.143,538.453,0.0
53724.0,STARLINK-4663,PAYLOAD,2023-12-10 00:32:44,15.08839005,0.0001923,53.2174,338.0366,96.8213,263.2998,0.00065832,0.00010204,0.0,0 STARLINK-4663,1 53724U 22107AA  23344.02273449  .00010204  00000-0  65832-3 0  9994,2 53724  53.2174 338.0366 0001923  96.8213 263.2998 15.08839005 70069,6917.883,95.438,541.079,538.418,0.0
